CCSDS_OMM_VERS = 2.0
CREATION_DATE  = 
ORIGINATOR     = 

OBJECT_NAME    = SL-3 R/B
OBJECT_ID      = 1982-079B
CENTER_NAME    = EARTH
REF_FRAME      = TEME
TIME_SYSTEM    = UTC
MEAN_ELEMENT_THEORY = SGP/SGP4

EPOCH          = 2026-02-21T18:49:53.383296
MEAN_MOTION    = 15.24531298
ECCENTRICITY   = .0024414
INCLINATION    = 81.1459
RA_OF_ASC_NODE = 211.8525
ARG_OF_PERICENTER = 218.6791
MEAN_ANOMALY   = 141.2695

EPHEMERIS_TYPE = 0
CLASSIFICATION_TYPE = U
NORAD_CAT_ID   = 13403
ELEMENT_SET_NO = 999
REV_AT_EPOCH   = 37527
BSTAR          = .26812E-3
MEAN_MOTION_DOT = .6678E-4
MEAN_MOTION_DDOT = 0

CCSDS_OMM_VERS = 2.0
CREATION_DATE  = 
ORIGINATOR     = 

OBJECT_NAME    = SL-14 R/B
OBJECT_ID      = 1982-092B
CENTER_NAME    = EARTH
REF_FRAME      = TEME
TIME_SYSTEM    = UTC
MEAN_ELEMENT_THEORY = SGP/SGP4

EPOCH          = 2026-02-21T16:51:02.877696
MEAN_MOTION    = 14.86647873
ECCENTRICITY   = .0020183
INCLINATION    = 82.5712
RA_OF_ASC_NODE = 156.3494
ARG_OF_PERICENTER = 358.6547
MEAN_ANOMALY   = 117.4477

EPHEMERIS_TYPE = 0
CLASSIFICATION_TYPE = U
NORAD_CAT_ID   = 13553
ELEMENT_SET_NO = 999
REV_AT_EPOCH   = 32655
BSTAR          = .49431E-4
MEAN_MOTION_DOT = .465E-5
MEAN_MOTION_DDOT = 0

CCSDS_OMM_VERS = 2.0
CREATION_DATE  = 
ORIGINATOR     = 

OBJECT_NAME    = SL-3 R/B
OBJECT_ID      = 1983-010B
CENTER_NAME    = EARTH
REF_FRAME      = TEME
TIME_SYSTEM    = UTC
MEAN_ELEMENT_THEORY = SGP/SGP4

EPOCH          = 2026-02-21T09:16:00.366240
MEAN_MOTION    = 15.45715379
ECCENTRICITY   = .00186472
INCLINATION    = 81.1044
RA_OF_ASC_NODE = 22.2244
ARG_OF_PERICENTER = 102.3881
MEAN_ANOMALY   = 257.9451

EPHEMERIS_TYPE = 0
CLASSIFICATION_TYPE = U
NORAD_CAT_ID   = 13819
ELEMENT_SET_NO = 999
REV_AT_EPOCH   = 35542
BSTAR          = .34814038E-3
MEAN_MOTION_DOT = .16971E-3
MEAN_MOTION_DDOT = 0

CCSDS_OMM_VERS = 2.0
CREATION_DATE  = 
ORIGINATOR     = 

OBJECT_NAME    = SL-3 R/B
OBJECT_ID      = 1983-075B
CENTER_NAME    = EARTH
REF_FRAME      = TEME
TIME_SYSTEM    = UTC
MEAN_ELEMENT_THEORY = SGP/SGP4

EPOCH          = 2026-02-21T17:58:35.040288
MEAN_MOTION    = 15.37981829
ECCENTRICITY   = .0019769
INCLINATION    = 97.6139
RA_OF_ASC_NODE = 56.7294
ARG_OF_PERICENTER = 288.7527
MEAN_ANOMALY   = 71.1572

EPHEMERIS_TYPE = 0
CLASSIFICATION_TYPE = U
NORAD_CAT_ID   = 14208
ELEMENT_SET_NO = 999
REV_AT_EPOCH   = 32770
BSTAR          = .29091E-3
MEAN_MOTION_DOT = .10853E-3
MEAN_MOTION_DDOT = 0

CCSDS_OMM_VERS = 2.0
CREATION_DATE  = 
ORIGINATOR     = 

OBJECT_NAME    = COSMOS 1536
OBJECT_ID      = 1984-013A
CENTER_NAME    = EARTH
REF_FRAME      = TEME
TIME_SYSTEM    = UTC
MEAN_ELEMENT_THEORY = SGP/SGP4

EPOCH          = 2026-02-21T16:42:21.079584
MEAN_MOTION    = 15.23587819
ECCENTRICITY   = .0013603
INCLINATION    = 82.5450
RA_OF_ASC_NODE = 123.7447
ARG_OF_PERICENTER = 344.6786
MEAN_ANOMALY   = 15.4037

EPHEMERIS_TYPE = 0
CLASSIFICATION_TYPE = U
NORAD_CAT_ID   = 14699
ELEMENT_SET_NO = 999
REV_AT_EPOCH   = 27018
BSTAR          = .21784E-3
MEAN_MOTION_DOT = .5255E-4
MEAN_MOTION_DDOT = 0

CCSDS_OMM_VERS = 2.0
CREATION_DATE  = 
ORIGINATOR     = 

OBJECT_NAME    = SL-14 R/B
OBJECT_ID      = 1984-027B
CENTER_NAME    = EARTH
REF_FRAME      = TEME
TIME_SYSTEM    = UTC
MEAN_ELEMENT_THEORY = SGP/SGP4

EPOCH          = 2026-02-21T16:00:07.294176
MEAN_MOTION    = 14.85958457
ECCENTRICITY   = .0018695
INCLINATION    = 82.5383
RA_OF_ASC_NODE = 260.0446
ARG_OF_PERICENTER = 30.9116
MEAN_ANOMALY   = 329.3197

EPHEMERIS_TYPE = 0
CLASSIFICATION_TYPE = U
NORAD_CAT_ID   = 14820
ELEMENT_SET_NO = 999
REV_AT_EPOCH   = 24525
BSTAR          = .37631E-4
MEAN_MOTION_DOT = .354E-5
MEAN_MOTION_DDOT = 0

CCSDS_OMM_VERS = 2.0
CREATION_DATE  = 
ORIGINATOR     = 

OBJECT_NAME    = SL-8 R/B
OBJECT_ID      = 1985-006B
CENTER_NAME    = EARTH
REF_FRAME      = TEME
TIME_SYSTEM    = UTC
MEAN_ELEMENT_THEORY = SGP/SGP4

EPOCH          = 2026-02-21T17:21:33.711840
MEAN_MOTION    = 14.37774321
ECCENTRICITY   = .0019076
INCLINATION    = 74.0449
RA_OF_ASC_NODE = 290.5298
ARG_OF_PERICENTER = 211.7417
MEAN_ANOMALY   = 204.8126

EPHEMERIS_TYPE = 0
CLASSIFICATION_TYPE = U
NORAD_CAT_ID   = 15483
ELEMENT_SET_NO = 999
REV_AT_EPOCH   = 15173
BSTAR          = .4998E-4
MEAN_MOTION_DOT = .124E-5
MEAN_MOTION_DDOT = 0

CCSDS_OMM_VERS = 2.0
CREATION_DATE  = 
ORIGINATOR     = 

OBJECT_NAME    = SL-12 R/B(2)
OBJECT_ID      = 1985-042D
CENTER_NAME    = EARTH
REF_FRAME      = TEME
TIME_SYSTEM    = UTC
MEAN_ELEMENT_THEORY = SGP/SGP4

EPOCH          = 2026-02-21T16:13:20.199936
MEAN_MOTION    = 14.21977818
ECCENTRICITY   = .0034129
INCLINATION    = 71.1077
RA_OF_ASC_NODE = 121.5629
ARG_OF_PERICENTER = 154.1273
MEAN_ANOMALY   = 12.4508

EPHEMERIS_TYPE = 0
CLASSIFICATION_TYPE = U
NORAD_CAT_ID   = 15772
ELEMENT_SET_NO = 999
REV_AT_EPOCH   = 11211
BSTAR          = .77673E-4
MEAN_MOTION_DOT = .125E-5
MEAN_MOTION_DDOT = 0

CCSDS_OMM_VERS = 2.0
CREATION_DATE  = 
ORIGINATOR     = 

OBJECT_NAME    = SL-14 R/B
OBJECT_ID      = 1985-069B
CENTER_NAME    = EARTH
REF_FRAME      = TEME
TIME_SYSTEM    = UTC
MEAN_ELEMENT_THEORY = SGP/SGP4

EPOCH          = 2026-02-21T10:54:22.402080
MEAN_MOTION    = 14.86412188
ECCENTRICITY   = .00172936
INCLINATION    = 82.5253
RA_OF_ASC_NODE = 40.2005
ARG_OF_PERICENTER = 244.3707
MEAN_ANOMALY   = 115.5723

EPHEMERIS_TYPE = 0
CLASSIFICATION_TYPE = U
NORAD_CAT_ID   = 15945
ELEMENT_SET_NO = 999
REV_AT_EPOCH   = 17042
BSTAR          = .53701722E-4
MEAN_MOTION_DOT = .499E-5
MEAN_MOTION_DDOT = 0

CCSDS_OMM_VERS = 2.0
CREATION_DATE  = 
ORIGINATOR     = 

OBJECT_NAME    = SL-16 R/B
OBJECT_ID      = 1985-097B
CENTER_NAME    = EARTH
REF_FRAME      = TEME
TIME_SYSTEM    = UTC
MEAN_ELEMENT_THEORY = SGP/SGP4

EPOCH          = 2026-02-21T18:06:16.125120
MEAN_MOTION    = 14.16595214
ECCENTRICITY   = .000971
INCLINATION    = 71.0032
RA_OF_ASC_NODE = 174.1000
ARG_OF_PERICENTER = 277.8677
MEAN_ANOMALY   = 187.4720

EPHEMERIS_TYPE = 0
CLASSIFICATION_TYPE = U
NORAD_CAT_ID   = 16182
ELEMENT_SET_NO = 999
REV_AT_EPOCH   = 8497
BSTAR          = .12444E-3
MEAN_MOTION_DOT = .2E-5
MEAN_MOTION_DDOT = 0

CCSDS_OMM_VERS = 2.0
CREATION_DATE  = 
ORIGINATOR     = 

OBJECT_NAME    = SL-14 R/B
OBJECT_ID      = 1986-006B
CENTER_NAME    = EARTH
REF_FRAME      = TEME
TIME_SYSTEM    = UTC
MEAN_ELEMENT_THEORY = SGP/SGP4

EPOCH          = 2026-02-21T16:55:07.074336
MEAN_MOTION    = 14.86792164
ECCENTRICITY   = .0075774
INCLINATION    = 82.5244
RA_OF_ASC_NODE = 274.7846
ARG_OF_PERICENTER = 326.7126
MEAN_ANOMALY   = 32.9336

EPHEMERIS_TYPE = 0
CLASSIFICATION_TYPE = U
NORAD_CAT_ID   = 16496
ELEMENT_SET_NO = 999
REV_AT_EPOCH   = 14683
BSTAR          = .50555E-4
MEAN_MOTION_DOT = .5E-5
MEAN_MOTION_DDOT = 0

CCSDS_OMM_VERS = 2.0
CREATION_DATE  = 
ORIGINATOR     = 

OBJECT_NAME    = COSMOS 1743
OBJECT_ID      = 1986-034A
CENTER_NAME    = EARTH
REF_FRAME      = TEME
TIME_SYSTEM    = UTC
MEAN_ELEMENT_THEORY = SGP/SGP4

EPOCH          = 2026-02-21T12:28:52.162752
MEAN_MOTION    = 15.57295215
ECCENTRICITY   = .0003805
INCLINATION    = 82.5304
RA_OF_ASC_NODE = 90.7859
ARG_OF_PERICENTER = 13.1295
MEAN_ANOMALY   = 347.0058

EPHEMERIS_TYPE = 0
CLASSIFICATION_TYPE = U
NORAD_CAT_ID   = 16719
ELEMENT_SET_NO = 999
REV_AT_EPOCH   = 17773
BSTAR          = .42016E-3
MEAN_MOTION_DOT = .30756E-3
MEAN_MOTION_DDOT = 0

