SL-3 R/B                
1 13403U 82079B   26052.78464564  .00006678  00000+0  26812-3 0  9994
2 13403  81.1459 211.8525 0024414 218.6791 141.2695 15.24531298375276
SL-14 R/B               
1 13553U 82092B   26052.70211664  .00000465  00000+0  49431-4 0  9999
2 13553  82.5712 156.3494 0020183 358.6547 117.4477 14.86647873326554
SL-3 R/B                
1 13819U 83010B   26052.38611535  .00016971  00000+0  34814-3 0  9997
2 13819  81.1044  22.2244 0018647 102.3881 257.9451 15.45715379355426
SL-3 R/B                
1 14208U 83075B   26052.74901667  .00010853  00000+0  29091-3 0  9993
2 14208  97.6139  56.7294 0019769 288.7527  71.1572 15.37981829327701
COSMOS 1536             
1 14699U 84013A   26052.69607731  .00005255  00000+0  21784-3 0  9990
2 14699  82.5450 123.7447 0013603 344.6786  15.4037 15.23587819270181
SL-14 R/B               
1 14820U 84027B   26052.66675109  .00000354  00000+0  37631-4 0  9996
2 14820  82.5383 260.0446 0018695  30.9116 329.3197 14.85958457245255
SL-8 R/B                
1 15483U 85006B   26052.72330685  .00000124  00000+0  49980-4 0  9999
2 15483  74.0449 290.5298 0019076 211.7417 204.8126 14.37774321151731
SL-12 R/B(2)            
1 15772U 85042D   26052.67592824  .00000125  00000+0  77673-4 0  9990
2 15772  71.1077 121.5629 0034129 154.1273  12.4508 14.21977818112119
SL-14 R/B               
1 15945U 85069B   26052.45442595  .00000499  00000+0  53702-4 0  9997
2 15945  82.5253  40.2005 0017293 244.3707 115.5723 14.86412188170422
SL-16 R/B               
1 16182U 85097B   26052.75435330  .00000200  00000+0  12444-3 0  9991
2 16182  71.0032 174.1000 0009710 277.8677 187.4720 14.16595214 84972
SL-14 R/B               
1 16496U 86006B   26052.70494299  .00000500  00000+0  50555-4 0  9993
2 16496  82.5244 274.7846 0075774 326.7126  32.9336 14.86792164146834
COSMOS 1743             
1 16719U 86034A   26052.52004818  .00030756  00000+0  42016-3 0  9994
2 16719  82.5304  90.7859 0003805  13.1295 347.0058 15.57295215177737
